OBJECT_NAME,OBJECT_ID,EPOCH,MEAN_MOTION,ECCENTRICITY,INCLINATION,RA_OF_ASC_NODE,ARG_OF_PERICENTER,MEAN_ANOMALY,EPHEMERIS_TYPE,CLASSIFICATION_TYPE,NORAD_CAT_ID,ELEMENT_SET_NO,REV_AT_EPOCH,BSTAR,MEAN_MOTION_DOT,MEAN_MOTION_DDOT
STARLINK-36767,2026-032T,2026-05-31T23:32:54.838464,15.33458798,.00012367,97.2858,339.9512,38.3410,321.7920,0,U,67814,999,1772,.78229059E-3,.25276E-3,0
STARLINK-36797,2026-032U,2026-06-01T00:47:18.557088,15.33437067,.00020067,97.2848,340.0311,88.6433,271.5040,0,U,67815,999,1773,.36102647E-3,.11596E-3,0
STARLINK-36343,2026-032V,2026-06-01T00:12:04.126176,15.33467572,.00008608,97.2869,340.0661,70.4322,289.7014,0,U,67816,999,1773,.81879066E-3,.2647E-3,0
STARLINK-36756,2026-032W,2026-06-01T00:27:43.919712,15.33444708,.00017419,97.2856,340.0535,97.0618,263.0823,0,U,67817,999,1772,.66082454E-3,.21319E-3,0
STARLINK-36346,2026-032X,2026-06-01T00:08:09.221856,15.33455968,.00014373,97.2871,340.0728,86.1536,273.9871,0,U,67818,999,1773,.96655368E-3,.31269E-3,0
STARLINK-36788,2026-032Y,2026-06-01T00:51:14.366016,15.33460854,.00019622,97.2861,340.0296,97.6768,262.4698,0,U,67819,999,1773,.76595139E-3,.24747E-3,0
STARLINK-36353,2026-032Z,2026-06-01T00:43:23.687328,15.33446105,.0002465,97.2867,340.0374,100.1745,259.9776,0,U,67820,999,1773,.48902133E-3,.15747E-3,0
STARLINK-36644,2026-033A,2026-06-01T01:10:44.623776,15.27593555,.00050367,43.0085,156.2159,291.9255,68.1061,0,U,67821,999,1742,.66121649E-3,.17989E-3,0
STARLINK-36643,2026-033B,2026-06-01T01:47:45.051072,15.27595342,.00012767,43.0005,156.4108,244.5648,115.5071,0,U,67822,999,1742,.68227612E-3,.18569E-3,0
STARLINK-36646,2026-033C,2026-06-01T01:19:59.523456,15.27608078,.00024734,43.0011,156.2526,267.8868,92.1700,0,U,67823,999,1742,.10248523E-2,.28072E-3,0
STARLINK-36647,2026-033D,2026-06-01T01:05:13.327296,15.27565516,.00020632,42.9983,156.1816,285.6626,74.3998,0,U,67824,999,1742,.93726705E-3,.25608E-3,0
STARLINK-36648,2026-033E,2026-06-01T00:39:16.874496,15.27600337,.0001718,42.9981,156.0274,278.4053,81.6604,0,U,67825,999,1742,.96576945E-3,.26426E-3,0
STARLINK-35865,2026-033F,2026-06-01T01:16:17.579136,15.27614409,.00041672,43.0068,156.2320,272.5783,87.4591,0,U,67826,999,1742,.91625176E-3,.25067E-3,0
STARLINK-36289,2026-033G,2026-06-01T00:22:51.079872,15.27602270,.00001825,42.9962,156.8273,75.7361,284.3511,0,U,67827,999,1741,.87656008E-3,.23954E-3,0
STARLINK-36670,2026-033H,2026-06-01T01:51:26.946144,15.27599010,.00019093,43.0011,156.4249,264.5237,95.5397,0,U,67828,999,1742,.12110463E-2,.33233E-3,0
STARLINK-36144,2026-033J,2026-06-01T01:44:02.843232,15.27594954,.00012163,42.9995,156.3806,217.9855,142.0911,0,U,67829,999,1742,.6938009E-3,.18887E-3,0
STARLINK-36611,2026-033K,2026-06-01T00:35:47.091840,15.27614804,.0001377,42.9990,156.8893,154.2027,205.8894,0,U,67830,999,1741,.1024733E-2,.28074E-3,0
STARLINK-36661,2026-033L,2026-06-01T00:30:14.887296,15.27600567,.00011596,42.9977,156.8659,258.8657,101.2064,0,U,67831,999,1741,.10242362E-2,.28048E-3,0
STARLINK-36662,2026-033M,2026-06-01T01:23:12.850368,15.27616587,.00011876,43.0034,149.2119,243.7113,116.3617,0,U,67832,999,1750,.86165175E-3,.23551E-3,0
STARLINK-36659,2026-033N,2026-06-01T01:01:31.016640,15.27586280,.00010241,42.9978,156.1443,212.4256,147.6533,0,U,67833,999,1742,.68401042E-3,.18612E-3,0
STARLINK-36655,2026-033P,2026-06-01T00:41:07.311840,15.27586461,.00011153,42.9983,156.0459,270.1480,89.9244,0,U,67834,999,1742,.41057903E-3,.11055E-3,0
STARLINK-36657,2026-033Q,2026-06-01T00:50:23.104032,15.27591205,.00009945,42.9973,156.0874,266.0030,94.0708,0,U,67835,999,1742,.85823075E-3,.23438E-3,0
STARLINK-36650,2026-033R,2026-06-01T01:38:29.872320,15.27606047,.00017908,43.0018,156.3512,267.9264,92.1382,0,U,67836,999,1742,.10653758E-2,.29194E-3,0
STARLINK-36649,2026-033S,2026-06-01T01:53:17.937312,15.27593624,.00015677,43.0006,156.4290,270.7661,89.3011,0,U,67837,999,1742,.10109595E-2,.27673E-3,0
STARLINK-36654,2026-033T,2026-06-01T01:32:56.852160,15.27596200,.00011603,43.0009,156.3194,256.7598,103.3124,0,U,67838,999,1742,.85672685E-3,.234E-3,0
STARLINK-36652,2026-033U,2026-06-01T01:27:23.712768,15.27604183,.00011688,42.9992,156.2898,243.9030,116.1702,0,U,67839,999,1742,.70622044E-3,.19237E-3,0
STARLINK-36651,2026-033V,2026-06-01T01:21:50.434272,15.27619412,.00019409,42.9943,156.2576,142.9551,217.1435,0,U,67840,999,1742,.82909717E-3,.22651E-3,0
STARLINK-36656,2026-033W,2026-06-01T01:12:35.032608,15.27626005,.00013103,43.0008,156.2101,225.7732,134.3012,0,U,67841,999,1742,.14186335E-2,.39037E-3,0
STARLINK-36653,2026-033X,2026-06-01T01:07:02.382240,15.27596096,.0000389,42.9963,156.1832,219.9398,140.1425,0,U,67842,999,1742,.79759765E-3,.21762E-3,0
STARLINK-36589,2026-033Y,2026-06-01T00:55:56.254656,15.27592313,.00003804,42.9963,156.1216,253.7831,106.2979,0,U,67843,999,1742,.6491661E-3,.17651E-3,0
