[ {"name": "STARLINK-36767", "line1": "1 67814U 26032T   26151.98119026  .00025276  00000+0  78229-3 0  9992", "line2": "2 67814  97.2858 339.9512 0001236  38.3410 321.7920 15.33458798 17724"}, {"name": "STARLINK-36797", "line1": "1 67815U 26032U   26152.03285367  .00011596  00000+0  36103-3 0  9997", "line2": "2 67815  97.2848 340.0311 0002006  88.6433 271.5040 15.33437067 17735"}, {"name": "STARLINK-36343", "line1": "1 67816U 26032V   26152.00838109  .00026470  00000+0  81879-3 0  9990", "line2": "2 67816  97.2869 340.0661 0000860  70.4322 289.7014 15.33467572 17735"}, {"name": "STARLINK-36756", "line1": "1 67817U 26032W   26152.01925833  .00021319  00000+0  66082-3 0  9999", "line2": "2 67817  97.2856 340.0535 0001741  97.0618 263.0823 15.33444708 17722"}, {"name": "STARLINK-36346", "line1": "1 67818U 26032X   26152.00566229  .00031269  00000+0  96655-3 0  9993", "line2": "2 67818  97.2871 340.0728 0001437  86.1536 273.9871 15.33455968 17738"}, {"name": "STARLINK-36788", "line1": "1 67819U 26032Y   26152.03558294  .00024747  00000+0  76595-3 0  9994", "line2": "2 67819  97.2861 340.0296 0001962  97.6768 262.4698 15.33460854 17735"}, {"name": "STARLINK-36353", "line1": "1 67820U 26032Z   26152.03013527  .00015747  00000+0  48902-3 0  9992", "line2": "2 67820  97.2867 340.0374 0002465 100.1745 259.9776 15.33446105 17735"}, {"name": "STARLINK-36644", "line1": "1 67821U 26033A   26152.04912759  .00017989  00000+0  66122-3 0  9994", "line2": "2 67821  43.0085 156.2159 0005036 291.9255  68.1061 15.27593555 17425"}, {"name": "STARLINK-36643", "line1": "1 67822U 26033B   26152.07482698  .00018569  00000+0  68228-3 0  9996", "line2": "2 67822  43.0005 156.4108 0001276 244.5648 115.5071 15.27595342 17420"}, {"name": "STARLINK-36646", "line1": "1 67823U 26033C   26152.05555004  .00028072  00000+0  10249-2 0  9996", "line2": "2 67823  43.0011 156.2526 0002473 267.8868  92.1700 15.27608078 17422"}, {"name": "STARLINK-36647", "line1": "1 67824U 26033D   26152.04529314  .00025608  00000+0  93727-3 0  9996", "line2": "2 67824  42.9983 156.1816 0002063 285.6626  74.3998 15.27565516 17425"}, {"name": "STARLINK-36648", "line1": "1 67825U 26033E   26152.02727864  .00026426  00000+0  96577-3 0  9990", "line2": "2 67825  42.9981 156.0274 0001718 278.4053  81.6604 15.27600337 17427"}, {"name": "STARLINK-35865", "line1": "1 67826U 26033F   26152.05298124  .00025067  00000+0  91625-3 0  9995", "line2": "2 67826  43.0068 156.2320 0004167 272.5783  87.4591 15.27614409 17420"}, {"name": "STARLINK-36289", "line1": "1 67827U 26033G   26152.01586898  .00023954  00000+0  87656-3 0  9992", "line2": "2 67827  42.9962 156.8273 0000182  75.7361 284.3511 15.27602270 17415"}, {"name": "STARLINK-36670", "line1": "1 67828U 26033H   26152.07739521  .00033233  00000+0  12110-2 0  9995", "line2": "2 67828  43.0011 156.4249 0001909 264.5237  95.5397 15.27599010 17422"}, {"name": "STARLINK-36144", "line1": "1 67829U 26033J   26152.07225513  .00018887  00000+0  69380-3 0  9997", "line2": "2 67829  42.9995 156.3806 0001216 217.9855 142.0911 15.27594954 17421"}, {"name": "STARLINK-36611", "line1": "1 67830U 26033K   26152.02485060  .00028074  00000+0  10247-2 0  9995", "line2": "2 67830  42.9990 156.8893 0001377 154.2027 205.8894 15.27614804 17415"}, {"name": "STARLINK-36661", "line1": "1 67831U 26033L   26152.02100564  .00028048  00000+0  10242-2 0  9995", "line2": "2 67831  42.9977 156.8659 0001159 258.8657 101.2064 15.27600567 17418"}, {"name": "STARLINK-36662", "line1": "1 67832U 26033M   26152.05778762  .00023551  00000+0  86165-3 0  9992", "line2": "2 67832  43.0034 149.2119 0001187 243.7113 116.3617 15.27616587 17503"}, {"name": "STARLINK-36659", "line1": "1 67833U 26033N   26152.04272010  .00018612  00000+0  68401-3 0  9992", "line2": "2 67833  42.9978 156.1443 0001024 212.4256 147.6533 15.27586280 17428"}, {"name": "STARLINK-36655", "line1": "1 67834U 26033P   26152.02855685  .00011055  00000+0  41058-3 0  9999", "line2": "2 67834  42.9983 156.0459 0001115 270.1480  89.9244 15.27586461 17420"}, {"name": "STARLINK-36657", "line1": "1 67835U 26033Q   26152.03498963  .00023438  00000+0  85823-3 0  9999", "line2": "2 67835  42.9973 156.0874 0000994 266.0030  94.0708 15.27591205 17424"}, {"name": "STARLINK-36650", "line1": "1 67836U 26033R   26152.06840130  .00029194  00000+0  10654-2 0  9994", "line2": "2 67836  43.0018 156.3512 0001790 267.9264  92.1382 15.27606047 17421"}, {"name": "STARLINK-36649", "line1": "1 67837U 26033S   26152.07867983  .00027673  00000+0  10110-2 0  9998", "line2": "2 67837  43.0006 156.4290 0001567 270.7661  89.3011 15.27593624 17421"}, {"name": "STARLINK-36654", "line1": "1 67838U 26033T   26152.06454690  .00023400  00000+0  85673-3 0  9996", "line2": "2 67838  43.0009 156.3194 0001160 256.7598 103.3124 15.27596200 17424"}, {"name": "STARLINK-36652", "line1": "1 67839U 26033U   26152.06069112  .00019237  00000+0  70622-3 0  9999", "line2": "2 67839  42.9992 156.2898 0001168 243.9030 116.1702 15.27604183 17425"}, {"name": "STARLINK-36651", "line1": "1 67840U 26033V   26152.05683373  .00022651  00000+0  82910-3 0  9998", "line2": "2 67840  42.9943 156.2576 0001940 142.9551 217.1435 15.27619412 17426"}, {"name": "STARLINK-36656", "line1": "1 67841U 26033W   26152.05040547  .00039037  00000+0  14186-2 0  9994", "line2": "2 67841  43.0008 156.2101 0001310 225.7732 134.3012 15.27626005 17424"}, {"name": "STARLINK-36653", "line1": "1 67842U 26033X   26152.04655535  .00021762  00000+0  79760-3 0  9999", "line2": "2 67842  42.9963 156.1832 0000389 219.9398 140.1425 15.27596096 17420"}, {"name": "STARLINK-36589", "line1": "1 67843U 26033Y   26152.03884554  .00017651  00000+0  64917-3 0  9994", "line2": "2 67843  42.9963 156.1216 0000380 253.7831 106.2979 15.27592313 17421"}]